2026-023F               
1 67679U 26023F   26037.83150241  .00006457  00000+0  28069-3 0  9999
2 67679  96.6417 116.8559 0020898 224.4168 135.5395 15.22365211   143
2026-023G               
1 67680U 26023G   26038.81744600  .00004315  00000+0  18946-3 0  9992
2 67680  96.6263 117.7523 0019658 223.6722 136.2962 15.22204274   299
2026-023H               
1 67681U 26023H   26037.83153515  .00006451  00000+0  28069-3 0  9993
2 67681  96.6335 116.8614 0021555 226.9356 133.0079 15.22318667   149
2026-023J               
1 67682U 26023J   26037.83150012  .00006460  00000+0  28055-3 0  9998
2 67682  96.6412 116.8562 0021119 228.0113 131.9327 15.22391354   145
ISS OBJECT XZ           
1 67683U 98067XZ  26042.24129136  .00044191  00000+0  78510-3 0  9994
2 67683  51.6305 203.0447 0010809 101.2058 259.0146 15.49682552   685
GXIBA-1                 
1 67684U 98067YA  26042.23942121  .00083345  00000+0  14334-2 0  9998
2 67684  51.6305 203.0337 0012690  95.6741 264.5695 15.50299598   685
CORAL                   
1 67685U 98067YB  26042.24088476  .00049657  00000+0  87609-3 0  9998
2 67685  51.6307 203.0427 0012750  96.4975 263.7466 15.49803407   688
ISS OBJECT YC           
1 67686U 98067YC  26041.91820275  .00050112  00000+0  88331-3 0  9994
2 67686  51.6308 204.6383 0007754  72.2403 287.9431 15.49880678   634
LEOPARD                 
1 67687U 98067YD  26042.24105188  .00046605  00000+0  82610-3 0  9997
2 67687  51.6310 203.0436 0007846  74.5029 285.6826 15.49753375   604
ISS OBJECT YE           
1 67688U 98067YE  26041.91827506  .00045422  00000+0  80313-3 0  9990
2 67688  51.6308 204.6388 0007727  72.3498 287.8334 15.49836472   551
PRC TEST SPACECRAFT 4   
1 67689U 26024A   26042.25436550  .00006769  00000+0  14037-3 0  9999
2 67689  49.9877 147.1000 0177618 165.2852 195.3372 15.31916939   630
CZ-2F R/B               
1 67690U 26024B   26040.75321049  .00009918  00000+0  19082-3 0  9994
2 67690  49.9890 154.5891 0178740 159.3290 201.5018 15.33080913   402
